BEIDOU 3 (C01)          
1 36287U 10001A   21061.04742101 -.00000289  00000-0  00000-0 0  9997
2 36287   1.7158  41.0024 0002756 100.4597 175.9636  1.00266974 40777
BEIDOU 5 (C06)          
1 36828U 10036A   21061.51536509 -.00000130  00000-0  00000+0 0  9995
2 36828  54.1760 180.5879 0107708 234.2668  47.9730  1.00294822 38834
BEIDOU 6 (C04)          
1 37210U 10057A   21062.59618622 -.00000121  00000-0  00000+0 0  9990
2 37210   0.9556  54.0840 0004120 197.6842 284.4668  1.00271135 37913
BEIDOU 7 (C07)          
1 37256U 10068A   21061.54979813 -.00000192  00000-0  00000-0 0  9997
2 37256  51.0445 295.2767 0081936 216.2525 325.5282  1.00290396 37414
BEIDOU 8 (C08)          
1 37384U 11013A   21062.24063676 -.00000171  00000-0  00000+0 0  9995
2 37384  59.6316  58.9691 0054644 207.4555 100.8868  1.00283832 36294
BEIDOU 9 (C09)          
1 37763U 11038A   21061.58297154 -.00000087  00000-0  00000+0 0  9995
2 37763  54.4645 183.0140 0078434 224.1225  57.6404  1.00287183 35269
BEIDOU 10 (C10)         
1 37948U 11073A   21061.80848748 -.00000136  00000-0  00000-0 0  9991
2 37948  51.1449 294.8818 0069362 215.1052  37.9461  1.00277483 34020
BEIDOU 11 (C05)         
1 38091U 12008A   21061.79910458  .00000050  00000-0  00000-0 0  9990
2 38091   1.3270  64.3998 0008349 297.6068 145.1410  1.00269592 33104
BEIDOU 12 (C11)         
1 38250U 12018A   21061.51744435 -.00000076  00000-0  00000+0 0  9996
2 38250  56.7575   9.1434 0023399 252.2328 345.9467  1.86234383 60299
BEIDOU 13 (C12)         
1 38251U 12018B   21062.43267894 -.00000080  00000-0  00000+0 0  9993
2 38251  56.6797   8.4669 0014458 258.0094 278.2347  1.86234282 60313
BEIDOU 15 (C14)         
1 38775U 12050B   21061.50314604  .00000016  00000-0  00000+0 0  9997
2 38775  55.1597 127.5879 0014236 316.8862 153.5141  1.86232344 57671
BEIDOU 16 (C02)         
1 38953U 12059A   21062.03382810 -.00000184  00000-0  00000+0 0  9994
2 38953   1.7131  84.9204 0009906 269.1339 263.2198  1.00272644 30670
BEIDOU 17 (C31)         
1 40549U 15019A   21061.80646201 -.00000167  00000-0  00000-0 0  9990
2 40549  52.6647 318.2270 0036423 188.2809  39.8137  1.00289704 21703
BEIDOU 18 (C57)         
1 40748U 15037A   21061.49833979 -.00000078  00000-0  00000+0 0  9996
2 40748  55.9452   7.6489 0005318 343.6289 196.2020  1.86233478 38127
BEIDOU 19 (C58)         
1 40749U 15037B   21061.38302490 -.00000077  00000-0  00000+0 0  9993
2 40749  55.9476   7.6411 0007242 313.8103 285.2752  1.86232338 38115
BEIDOU 20 (C18)         
1 40938U 15053A   21061.57271594 -.00000102  00000-0  00000+0 0  9991
2 40938  52.2283 281.2840 0046144 189.9818 350.4816  1.00260851 19983
BEIDOU IGSO-6 (C13)     
1 41434U 16021A   21062.37350122 -.00000134  00000-0  00000+0 0  9998
2 41434  57.4103  57.7552 0040636 216.3048 116.7612  1.00291035 18107
BEIDOU-2 G7 (C03)       
1 41586U 16037A   21062.63684058 -.00000363  00000-0  00000+0 0  9994
2 41586   1.4788  64.0236 0009390   8.3876  68.9792  1.00273550 17415
BEIDOU-3 M1 (C19)       
1 43001U 17069A   21062.18515374  .00000008  00000-0  00000+0 0  9993
2 43001  55.3143 127.5043 0010215 285.2592  78.7051  1.86231722 22627
BEIDOU-3 M2 (C20)       
1 43002U 17069B   21061.56077583  .00000015  00000-0  00000+0 0  9998
2 43002  55.3129 127.5623 0008527 305.6970  43.2553  1.86231529 22591
BEIDOU-3 M3 (C27)       
1 43107U 18003A   21062.52782284 -.00000082  00000-0  00000+0 0  9996
2 43107  55.3854   8.7442 0004662  26.2656  56.9204  1.86232596 21389
BEIDOU-3 M4 (C28)       
1 43108U 18003B   21061.37251907 -.00000078  00000-0  00000+0 0  9997
2 43108  55.3796   8.7735 0003799 266.0709 167.7232  1.86232622 21363
BEIDOU-3 M5 (C21)       
1 43207U 18018A   21061.17296597  .00000019  00000-0  00000-0 0  9990
2 43207  55.2734 127.6695 0005859 325.6630  34.3732  1.86231602 20746
BEIDOU-3 M6 (C22)       
1 43208U 18018B   21062.31356004  .00000006  00000-0  00000+0 0  9993
2 43208  55.2714 127.6338 0008992 295.1926  64.7879  1.86231492 20767
BEIDOU-3 M7 (C29)       
1 43245U 18029A   21062.27419708 -.00000082  00000-0  00000+0 0  9997
2 43245  55.3212   6.5487 0001688 315.6145 227.6693  1.86232679 19915
BEIDOU-3 M8 (C30)       
1 43246U 18029B   21062.02494833 -.00000081  00000-0  10000-3 0  9997
2 43246  55.3186   6.5887 0005391 338.7603  83.5198  1.86232986 19909
BEIDOU IGSO-7 (C16)     
1 43539U 18057A   21061.74980192 -.00000135  00000-0  00000+0 0  9994
2 43539  55.0561 179.9120 0032389 213.4222 147.9586  1.00245936  9782
BEIDOU-3 M9 (C23)       
1 43581U 18062A   21062.38261696  .00000061  00000-0  00000+0 0  9996
2 43581  54.4476 248.2375 0002171 318.3844 193.5240  1.86231889 17655
BEIDOU-3 M10 (C24)      
1 43582U 18062B   21062.29431264  .00000060  00000-0  00000+0 0  9996
2 43582  54.4461 248.2290 0006432  16.9381 167.0341  1.86232227 17652
BEIDOU-3 M11 (C25)      
1 43602U 18067A   21061.42064284  .00000057  00000-0  00000+0 0  9998
2 43602  54.5226 246.8334 0007412   6.6555 353.9340  1.86231630 17131
BEIDOU-3 M12 (C26)      
1 43603U 18067B   21061.51075428  .00000058  00000-0  00000+0 0  9992
2 43603  54.5153 246.7990 0004540   2.1565 329.3317  1.86231555 17147
BEIDOU-3 M13 (C32)      
1 43622U 18072A   21061.52337656  .00000016  00000-0  00000+0 0  9998
2 43622  55.2374 127.2292 0006797 279.4415  90.7873  1.86231579 16666
BEIDOU-3 M14 (C33)      
1 43623U 18072B   21061.47939557  .00000016  00000-0  00000+0 0  9991
2 43623  55.2375 127.2220 0004969 303.1448 127.8311  1.86231565 16663
BEIDOU-3 M15 (C34)      
1 43647U 18078A   21062.32557941 -.00000083  00000-0  10000-3 0  9991
2 43647  55.2148   6.7467 0007718 346.8099 186.7010  1.86232748 16183
BEIDOU-3 M16 (C35)      
1 43648U 18078B   21062.30401980 -.00000083  00000-0  10000-3 0  9991
2 43648  55.2107   6.7549 0005555 353.0981  74.5997  1.86232317 16200
BEIDOU-3 G1 (C59)       
1 43683U 18085A   21061.63782045 -.00000288  00000-0  00000-0 0  9990
2 43683   1.2378 239.4704 0003002  42.1974 248.6111  1.00269432  8680
BEIDOU-3 M17 (C36)      
1 43706U 18093A   21061.74899904  .00000058  00000-0  00000+0 0  9993
2 43706  54.5267 248.1104 0007518 279.2452  32.8051  1.86231891 15535
BEIDOU-3 M18 (C37)      
1 43707U 18093B   21061.41894549  .00000057  00000-0  00000+0 0  9997
2 43707  54.5282 248.1098 0007071 310.7661 230.7528  1.86232133 15530
BEIDOU-3 IGSO-1 (C38)   
1 44204U 19023A   21061.68073752 -.00000191  00000-0  00000-0 0  9999
2 44204  55.8683  58.0741 0016804 205.6379 256.2926  1.00271687  6984
BEIDOU-2 G8             
1 44231U 19027A   21062.62947903 -.00000256  00000-0  00000+0 0  9997
2 44231   0.4229 316.8172 0006385 263.4230 312.5441  1.00271531  6717
BEIDOU-3 IGSO-2 (C39)   
1 44337U 19035A   21062.59752994 -.00000128  00000-0  00000+0 0  9991
2 44337  55.0873 175.9483 0017340 188.2804 119.4395  1.00263693  6327
BEIDOU-3 M23 (C45)      
1 44542U 19061A   21060.41453819  .00000055  00000-0  10000-3 0  9994
2 44542  54.7530 248.2040 0008166 344.7564 196.7658  1.86231422  9773
BEIDOU-3 M24 (C46)      
1 44543U 19061B   21062.21468444  .00000061  00000-0  10000-3 0  9992
2 44543  54.7501 248.1127 0005299 343.5202 235.6212  1.86231720  9812
BEIDOU-3 IGSO-3         
1 44709U 19073A   21061.59007794 -.00000144  00000-0  00000-0 0  9995
2 44709  58.0046 301.2562 0018780 191.4099 346.3692  1.00258041  5071
BEIDOU-3 M21            
1 44793U 19078A   21062.29534186 -.00000083  00000-0  10000-3 0  9997
2 44793  55.0602   6.8242 0007529 353.7088 114.1103  1.86232333  8679
BEIDOU-3 M22            
1 44794U 19078B   21061.47664174 -.00000079  00000-0  10000-3 0  9993
2 44794  55.0384   6.8559 0005490 344.0506 205.6458  1.86232898  8654
BEIDOU-3 M19            
1 44864U 19090A   21061.52394140  .00000015  00000-0  00000+0 0  9998
2 44864  55.1727 127.4642 0016549 263.5999 152.4162  1.86231821  8246
BEIDOU-3 M20            
1 44865U 19090B   21061.49193939  .00000016  00000-0  00000+0 0  9999
2 44865  55.1745 127.4962 0015055 277.8938 206.5920  1.86231787  8226
BEIDOU-3 G2             
1 45344U 20017A   21062.63082130 -.00000148  00000-0  00000+0 0  9997
2 45344   2.5717 333.8570 0002383  60.8212  73.9987  1.00270085  3906
BEIDOU-3 G3             
1 45807U 20040A   21062.49333750 -.00000363  00000-0  00000+0 0  9997
2 45807   2.5288 298.3846 0009240  14.5406 136.6755  1.00273406  2712
